[{"OBJECT_NAME":"STARLINK-35939","OBJECT_ID":"2025-268AD","EPOCH":"2026-03-09T02:21:32.773536","MEAN_MOTION":15.27559241,"ECCENTRICITY":0.00015039,"INCLINATION":43.0045,"RA_OF_ASC_NODE":350.0257,"ARG_OF_PERICENTER":267.1798,"MEAN_ANOMALY":92.8881,"EPHEMERIS_TYPE":0,"CLASSIFICATION_TYPE":"U","NORAD_CAT_ID":66584,"ELEMENT_SET_NO":999,"REV_AT_EPOCH":1787,"BSTAR":0.0013505946,"MEAN_MOTION_DOT":0.00037067,"MEAN_MOTION_DDOT":0},{"OBJECT_NAME":"SIMSAT 1","OBJECT_ID":"2000-026A","EPOCH":"2026-03-09T17:22:54.646176","MEAN_MOTION":15.27666538,"ECCENTRICITY":0.00084816,"INCLINATION":86.3501,"RA_OF_ASC_NODE":180.5413,"ARG_OF_PERICENTER":14.8337,"MEAN_ANOMALY":345.3157,"EPHEMERIS_TYPE":0,"CLASSIFICATION_TYPE":"U","NORAD_CAT_ID":26365,"ELEMENT_SET_NO":999,"REV_AT_EPOCH":42720,"BSTAR":0.00013499313,"MEAN_MOTION_DOT":3.69e-5,"MEAN_MOTION_DDOT":0}]
